[{"OBJECT_NAME":"TRANSPORTER-12 OBJECT AZ","OBJECT_ID":"2025-009AZ","EPOCH":"2026-03-09T17:02:46.667040","MEAN_MOTION":15.30349724,"ECCENTRICITY":9.87e-5,"INCLINATION":97.3981,"RA_OF_ASC_NODE":151.9913,"ARG_OF_PERICENTER":45.3581,"MEAN_ANOMALY":314.774,"EPHEMERIS_TYPE":0,"CLASSIFICATION_TYPE":"U","NORAD_CAT_ID":62656,"ELEMENT_SET_NO":999,"REV_AT_EPOCH":6379,"BSTAR":0.00054902545,"MEAN_MOTION_DOT":0.00016057,"MEAN_MOTION_DDOT":0},{"OBJECT_NAME":"STARLINK-35600","OBJECT_ID":"2025-263AB","EPOCH":"2026-03-08T19:57:03.398112","MEAN_MOTION":15.27568302,"ECCENTRICITY":0.00013774,"INCLINATION":43.0033,"RA_OF_ASC_NODE":355.8857,"ARG_OF_PERICENTER":246.7545,"MEAN_ANOMALY":113.3161,"EPHEMERIS_TYPE":0,"CLASSIFICATION_TYPE":"U","NORAD_CAT_ID":66510,"ELEMENT_SET_NO":999,"REV_AT_EPOCH":1876,"BSTAR":0.0010326504,"MEAN_MOTION_DOT":0.00028253,"MEAN_MOTION_DDOT":0}]
